{
  "type": "FeatureCollection",
  "features": [
    {
      "type": "Feature",
      "properties": {
        "norad_id": 58701,
        "name": "TIANMU-1 16",
        "group": "weather",
        "lat": -73.90786779810554,
        "lon": -173.93957127783563,
        "alt_km": 498.1317390067752,
        "timestamp": "2025-12-04T03:47:54.197991+00:00",
        "meta_object_name": "TIANMU-1 16",
        "meta_object_id": "2024-004B",
        "meta_epoch": "2025-12-02T23:46:09.262272",
        "meta_mean_motion": 15.24215807,
        "meta_eccentricity": 0.00050547,
        "meta_inclination": 97.4572,
        "meta_ra_of_asc_node": 157.8955,
        "meta_arg_of_pericenter": 336.3217,
        "meta_mean_anomaly": 23.7787,
        "meta_ephemeris_type": 0,
        "meta_classification_type": "U",
        "meta_norad_cat_id": 58701,
        "meta_element_set_no": 999,
        "meta_rev_at_epoch": 10586,
        "meta_bstar": 6.5908855e-05,
        "meta_mean_motion_dot": 1.535e-05,
        "meta_mean_motion_ddot": 0,
        "tle_line1": "1 58701U 24004B   25336.99038498  .00001535  00000+0  65909-4 0  9996",
        "tle_line2": "2 58701  97.4572 157.8955 0005054 336.3217  23.7787 15.24215807105865"
      },
      "geometry": {
        "type": "Point",
        "coordinates": [
          -173.93957127783563,
          -73.90786779810554
        ]
      }
    },
    {
      "type": "Feature",
      "properties": {
        "norad_id": 58702,
        "name": "TIANMU-1 17",
        "group": "weather",
        "lat": 7.404013666307288,
        "lon": 158.4873902565013,
        "alt_km": 492.47447203106185,
        "timestamp": "2025-12-04T03:47:54.198000+00:00",
        "meta_object_name": "TIANMU-1 17",
        "meta_object_id": "2024-004C",
        "meta_epoch": "2025-12-03T19:53:17.458656",
        "meta_mean_motion": 15.24286322,
        "meta_eccentricity": 0.0004278,
        "meta_inclination": 97.4597,
        "meta_ra_of_asc_node": 159.135,
        "meta_arg_of_pericenter": 337.4139,
        "meta_mean_anomaly": 22.6909,
        "meta_ephemeris_type": 0,
        "meta_classification_type": "U",
        "meta_norad_cat_id": 58702,
        "meta_element_set_no": 999,
        "meta_rev_at_epoch": 10598,
        "meta_bstar": 0.00042315,
        "meta_mean_motion_dot": 0.00010272,
        "meta_mean_motion_ddot": 0,
        "tle_line1": "1 58702U 24004C   25337.82867429  .00010272  00000+0  42315-3 0  9997",
        "tle_line2": "2 58702  97.4597 159.1350 0004278 337.4139  22.6909 15.24286322105986"
      },
      "geometry": {
        "type": "Point",
        "coordinates": [
          158.4873902565013,
          7.404013666307288
        ]
      }
    },
    {
      "type": "Feature",
      "properties": {
        "norad_id": 58703,
        "name": "TIANMU-1 18",
        "group": "weather",
        "lat": 77.97118346822815,
        "lon": 17.61296062966218,
        "alt_km": 486.96335666159575,
        "timestamp": "2025-12-04T03:47:54.198013+00:00",
        "meta_object_name": "TIANMU-1 18",
        "meta_object_id": "2024-004D",
        "meta_epoch": "2025-12-03T21:03:42.284736",
        "meta_mean_motion": 15.24279753,
        "meta_eccentricity": 0.0003636,
        "meta_inclination": 97.4614,
        "meta_ra_of_asc_node": 159.3771,
        "meta_arg_of_pericenter": 338.6636,
        "meta_mean_anomaly": 21.4449,
        "meta_ephemeris_type": 0,
        "meta_classification_type": "U",
        "meta_norad_cat_id": 58703,
        "meta_element_set_no": 999,
        "meta_rev_at_epoch": 10599,
        "meta_bstar": 0.00043459,
        "meta_mean_motion_dot": 0.0001055,
        "meta_mean_motion_ddot": 0,
        "tle_line1": "1 58703U 24004D   25337.87757274  .00010550  00000+0  43459-3 0  9998",
        "tle_line2": "2 58703  97.4614 159.3771 0003636 338.6636  21.4449 15.24279753105995"
      },
      "geometry": {
        "type": "Point",
        "coordinates": [
          17.61296062966218,
          77.97118346822815
        ]
      }
    },
    {
      "type": "Feature",
      "properties": {
        "norad_id": 58990,
        "name": "INSAT-3DS",
        "group": "weather",
        "lat": -0.036404677879069584,
        "lon": -147.74625434017676,
        "alt_km": 35781.8576309464,
        "timestamp": "2025-12-04T03:47:54.198024+00:00",
        "meta_object_name": "INSAT-3DS",
        "meta_object_id": "2024-033A",
        "meta_epoch": "2025-12-03T20:14:15.822816",
        "meta_mean_motion": 1.00268816,
        "meta_eccentricity": 0.0001775,
        "meta_inclination": 0.013,
        "meta_ra_of_asc_node": 325.7109,
        "meta_arg_of_pericenter": 294.1974,
        "meta_mean_anomaly": 198.6664,
        "meta_ephemeris_type": 0,
        "meta_classification_type": "U",
        "meta_norad_cat_id": 58990,
        "meta_element_set_no": 999,
        "meta_rev_at_epoch": 4511,
        "meta_bstar": 0,
        "meta_mean_motion_dot": 0,
        "meta_mean_motion_ddot": 0,
        "tle_line1": "1 58990U 24033A   25337.84323869  .00000000  00000+0  00000+0 0  9994",
        "tle_line2": "2 58990   0.0130 325.7109 0001775 294.1974 198.6664  1.00268816 45113"
      },
      "geometry": {
        "type": "Point",
        "coordinates": [
          -147.74625434017676,
          -0.036404677879069584
        ]
      }
    },
    {
      "type": "Feature",
      "properties": {
        "norad_id": 59051,
        "name": "METEOR-M2 4",
        "group": "weather",
        "lat": 0.5654946443328194,
        "lon": 115.28846725334341,
        "alt_km": 825.071941495512,
        "timestamp": "2025-12-04T03:47:54.198037+00:00",
        "meta_object_name": "METEOR-M2 4",
        "meta_object_id": "2024-039A",
        "meta_epoch": "2025-12-03T20:12:19.406592",
        "meta_mean_motion": 14.22399029,
        "meta_eccentricity": 0.0007513,
        "meta_inclination": 98.6753,
        "meta_ra_of_asc_node": 294.8908,
        "meta_arg_of_pericenter": 23.2235,
        "meta_mean_anomaly": 336.9281,
        "meta_ephemeris_type": 0,
        "meta_classification_type": "U",
        "meta_norad_cat_id": 59051,
        "meta_element_set_no": 999,
        "meta_rev_at_epoch": 9149,
        "meta_bstar": 5.1434e-05,
        "meta_mean_motion_dot": 7.1e-07,
        "meta_mean_motion_ddot": 0,
        "tle_line1": "1 59051U 24039A   25337.84189128  .00000071  00000+0  51434-4 0  9997",
        "tle_line2": "2 59051  98.6753 294.8908 0007513  23.2235 336.9281 14.22399029 91499"
      },
      "geometry": {
        "type": "Point",
        "coordinates": [
          115.28846725334341,
          0.5654946443328194
        ]
      }
    },
    {
      "type": "Feature",
      "properties": {
        "norad_id": 60133,
        "name": "GOES 19",
        "group": "weather",
        "lat": 0.01206738673909478,
        "lon": 55.02286323361667,
        "alt_km": 35788.98218856314,
        "timestamp": "2025-12-04T03:47:54.198049+00:00",
        "meta_object_name": "GOES 19",
        "meta_object_id": "2024-119A",
        "meta_epoch": "2025-12-03T13:23:52.774080",
        "meta_mean_motion": 1.00270855,
        "meta_eccentricity": 0.0001338,
        "meta_inclination": 0.0059,
        "meta_ra_of_asc_node": 37.8356,
        "meta_arg_of_pericenter": 260.1729,
        "meta_mean_anomaly": 260.4283,
        "meta_ephemeris_type": 0,
        "meta_classification_type": "U",
        "meta_norad_cat_id": 60133,
        "meta_element_set_no": 999,
        "meta_rev_at_epoch": 500,
        "meta_bstar": 0,
        "meta_mean_motion_dot": -2.3e-06,
        "meta_mean_motion_ddot": 0,
        "tle_line1": "1 60133U 24119A   25337.55824970 -.00000230  00000+0  00000+0 0  9994",
        "tle_line2": "2 60133   0.0059  37.8356 0001338 260.1729 260.4283  1.00270855  5001"
      },
      "geometry": {
        "type": "Point",
        "coordinates": [
          55.02286323361667,
          0.01206738673909478
        ]
      }
    },
    {
      "type": "Feature",
      "properties": {
        "norad_id": 65815,
        "name": "FENGYUN 3H",
        "group": "weather",
        "lat": 44.02895123293216,
        "lon": 106.40430590951048,
        "alt_km": 821.7366703218286,
        "timestamp": "2025-12-04T03:47:54.198060+00:00",
        "meta_object_name": "FENGYUN 3H",
        "meta_object_id": "2025-219A",
        "meta_epoch": "2025-12-03T18:42:27.188640",
        "meta_mean_motion": 14.19900487,
        "meta_eccentricity": 6.28e-05,
        "meta_inclination": 98.657,
        "meta_ra_of_asc_node": 277.565,
        "meta_arg_of_pericenter": 71.8149,
        "meta_mean_anomaly": 288.3095,
        "meta_ephemeris_type": 0,
        "meta_classification_type": "U",
        "meta_norad_cat_id": 65815,
        "meta_element_set_no": 999,
        "meta_rev_at_epoch": 965,
        "meta_bstar": 9.1709e-05,
        "meta_mean_motion_dot": 1.51e-06,
        "meta_mean_motion_ddot": 0,
        "tle_line1": "1 65815U 25219A   25337.77948135  .00000151  00000+0  91709-4 0  9994",
        "tle_line2": "2 65815  98.6570 277.5650 0000628  71.8149 288.3095 14.19900487  9658"
      },
      "geometry": {
        "type": "Point",
        "coordinates": [
          106.40430590951048,
          44.02895123293216
        ]
      }
    }
  ]
}